OBJECT_NAME,OBJECT_ID,EPOCH,MEAN_MOTION,ECCENTRICITY,INCLINATION,RA_OF_ASC_NODE,ARG_OF_PERICENTER,MEAN_ANOMALY,EPHEMERIS_TYPE,CLASSIFICATION_TYPE,NORAD_CAT_ID,ELEMENT_SET_NO,REV_AT_EPOCH,BSTAR,MEAN_MOTION_DOT,MEAN_MOTION_DDOT
BEIDOU-3 M28 (C50),2023-207A,2026-06-13T00:05:10.893120,1.86229633,.0003374,55.7492,62.4443,346.0621,13.9544,0,U,58654,999,1676,0,-.57E-6,0
BEIDOU-3 M26 (C48),2023-207B,2026-06-14T22:46:28.701984,1.86229586,.00030045,55.7530,62.3651,320.9996,39.0122,0,U,58655,999,1678,0,-.54E-6,0
GSAT0225 (GALILEO 29),2024-079A,2026-06-14T19:54:30.701664,1.70473806,.00016271,55.1185,101.1461,305.1538,273.5653,0,U,59598,999,1327,0,-.13E-6,0
GSAT0227 (GALILEO 30),2024-079C,2026-06-14T01:40:40.530720,1.70473921,.00020513,55.1133,101.1658,47.7236,312.2495,0,U,59600,999,1331,0,-.1E-6,0
GSAT0232 (GALILEO 32),2024-167A,2026-06-14T10:07:45.895008,1.70474154,.00062682,55.1857,221.3898,227.1556,204.5150,0,U,61182,999,1083,0,.6E-6,0
GSAT0226 (GALILEO 31),2024-167B,2026-06-13T14:48:48.595104,1.70474135,.0002934,55.1846,221.4192,226.2938,162.7706,0,U,61183,999,1079,0,.62E-6,0
BEIDOU-3 M25 (C47),2024-168B,2026-06-12T20:05:08.326752,1.86229830,.00030001,54.4778,302.3939,301.8949,199.4569,0,U,61186,999,1170,0,-.69E-6,0
BEIDOU-3 M27 (C49),2024-168C,2026-06-13T11:58:38.795232,1.86229877,.00015967,54.4725,302.3538,50.9601,309.3604,0,U,61187,999,919,0,-.7E-6,0
GPS BIII-7  (PRN 01),2024-242A,2026-06-13T08:49:23.989728,2.00571230,.00171883,54.8503,334.3363,3.9293,7.0837,0,U,62339,999,1118,0,-.75E-6,0
QZS-6 (QZSS/PRN 200),2025-023A,2026-06-15T00:25:51.908160,1.00271178,.00016947,0.0485,67.8725,22.6056,269.8216,0,U,62876,999,492,0,-.228E-5,0
COSMOS 2584 (704K),2025-042A,2026-06-08T05:23:06.412992,2.13103875,.00058283,65.0792,73.1067,228.4476,131.5246,0,U,63130,999,985,0,-.15E-6,0
GPS BIII-8  (PRN 21),2025-116A,2026-06-12T09:20:58.319232,2.00576015,.00085633,55.2312,31.3239,338.8161,228.7168,0,U,64202,999,777,0,-.65E-6,0
COSMOS 2596 (708K),2025-206B,2026-06-10T09:21:23.669856,2.13100656,.00110879,64.6376,315.2225,312.7926,24.8898,0,U,65590,999,576,0,-.39E-6,0
GSAT0233 (GALILEO 33),2025-302A,2026-06-13T02:48:03.794112,1.70473941,.00009401,54.3316,102.2474,233.3005,305.0843,0,U,67160,999,305,0,-.3E-7,0
GSAT0234 (GALILEO 34),2025-302C,2026-06-14T13:55:34.266144,1.70473883,.0003043,54.3363,102.2045,308.4769,228.2268,0,U,67162,999,313,0,-.11E-6,0
GPS BIII-9  (PRN 20),2026-017A,2026-06-13T05:00:40.049568,2.00571123,.00221476,55.0859,88.9150,258.0590,101.6773,0,U,67588,999,43153,0,-.28E-6,0
GPS BIII-10 (PRN 13),2026-087A,2026-06-07T10:32:17.680992,2.00569573,.00209312,54.9638,208.1735,107.2972,251.8874,0,U,68791,999,63,0,.57E-6,0
